STARLINK-11578 [DTC]    
1 63014U 25032K   26047.98265240  .00182088  00000+0  13887-2 0  9996
2 63014  42.9999 320.4653 0002096 246.0599 114.0049 15.70889841 58905
STARLINK-11541 [DTC]    
1 63015U 25032L   26048.13092941  .00198271  00000+0  15074-2 0  9992
2 63015  42.9995 318.9749 0002066 281.1769  78.8866 15.70913414 58993
STARLINK-11545 [DTC]    
1 63016U 25032M   26048.07796217  .00211760  00000+0  16095-2 0  9996
2 63016  43.0000 319.4409 0002169 284.4643  75.5984 15.70877950 58981
STARLINK-11400 [DTC]    
1 63017U 25032N   26048.10449175  .00210391  00000+0  15890-2 0  9990
2 63017  43.0004 319.6562 0007619 241.4865 118.5236 15.71004503 58976
STARLINK-32870          
1 63018U 25032P   26048.18762169  .00037882  00000+0  13778-2 0  9995
2 63018  43.0015  91.9062 0001717 264.9866  95.0790 15.27609645 57486
STARLINK-32872          
1 63019U 25032Q   26048.14408332  .00029489  00000+0  10761-2 0  9994
2 63019  42.9921  92.4408 0000202  57.9641 302.1230 15.27603464 57473
STARLINK-32677          
1 63020U 25032R   26048.12609535  .00023995  00000+0  87818-3 0  9996
2 63020  42.9985  92.3106 0000697 326.3363  33.7445 15.27598223 57461
STARLINK-32929          
1 63021U 25032S   26048.12995983  .00033352  00000+0  12165-2 0  9992
2 63021  42.9991  92.3331 0001811 257.6823 102.3826 15.27566446 57474
STARLINK-32944          
1 63022U 25032T   26048.14793418  .00022902  00000+0  83862-3 0  9996
2 63022  42.9938  92.4728 0001478 144.4001 215.6949 15.27601362 57478
STARLINK-32943          
1 63023U 25032U   26048.10424358  .00025766  00000+0  94120-3 0  9997
2 63023  42.9984  92.1384 0001297 190.6964 169.3860 15.27628172 57470
STARLINK-32803          
1 63024U 25032V   26048.16577419  .00028437  00000+0  10389-2 0  9993
2 63024  43.0011  91.7357 0001068 188.3396 171.7438 15.27580980 57324
STARLINK-32926          
1 63025U 25032W   26048.15935295  .00046973  00000+0  17020-2 0  9997
2 63025  42.9985  91.6956 0001219 254.2383 105.8334 15.27650065 57486
STARLINK-32798          
1 63029U 25034A   26048.14559640  .00038016  00000+0  12889-2 0  9995
2 63029  53.1618   6.1818 0001080  83.4905 276.6218 15.30206396 55768
STARLINK-32779          
1 63030U 25034B   26048.13726212  .00026720  00000+0  91060-3 0  9995
2 63030  53.1625   6.8302 0001613 135.0253 225.0879 15.30214748 55755
STARLINK-32716          
1 63031U 25034C   26048.14293097  .00028843  00000+0  98221-3 0  9991
2 63031  53.1603 353.3778 0001224  75.9233 284.1904 15.30198570 55947
STARLINK-32776          
1 63032U 25034D   26048.06084485  .00024216  00000+0  82693-3 0  9998
2 63032  53.1604 354.2818 0001001  75.1999 284.9112 15.30205033 55928
