[{"OBJECT_NAME":"STARLINK-11578 [DTC]","OBJECT_ID":"2025-032K","EPOCH":"2026-02-16T23:35:01.167360","MEAN_MOTION":15.70889841,"ECCENTRICITY":0.0002096,"INCLINATION":42.9999,"RA_OF_ASC_NODE":320.4653,"ARG_OF_PERICENTER":246.0599,"MEAN_ANOMALY":114.0049,"EPHEMERIS_TYPE":0,"CLASSIFICATION_TYPE":"U","NORAD_CAT_ID":63014,"ELEMENT_SET_NO":999,"REV_AT_EPOCH":5890,"BSTAR":0.0013887,"MEAN_MOTION_DOT":0.00182088,"MEAN_MOTION_DDOT":0},{"OBJECT_NAME":"STARLINK-11541 [DTC]","OBJECT_ID":"2025-032L","EPOCH":"2026-02-17T03:08:32.301024","MEAN_MOTION":15.70913414,"ECCENTRICITY":0.0002066,"INCLINATION":42.9995,"RA_OF_ASC_NODE":318.9749,"ARG_OF_PERICENTER":281.1769,"MEAN_ANOMALY":78.8866,"EPHEMERIS_TYPE":0,"CLASSIFICATION_TYPE":"U","NORAD_CAT_ID":63015,"ELEMENT_SET_NO":999,"REV_AT_EPOCH":5899,"BSTAR":0.0015074,"MEAN_MOTION_DOT":0.00198271,"MEAN_MOTION_DDOT":0},{"OBJECT_NAME":"STARLINK-11545 [DTC]","OBJECT_ID":"2025-032M","EPOCH":"2026-02-17T01:52:15.931488","MEAN_MOTION":15.7087795,"ECCENTRICITY":0.0002169,"INCLINATION":43,"RA_OF_ASC_NODE":319.4409,"ARG_OF_PERICENTER":284.4643,"MEAN_ANOMALY":75.5984,"EPHEMERIS_TYPE":0,"CLASSIFICATION_TYPE":"U","NORAD_CAT_ID":63016,"ELEMENT_SET_NO":999,"REV_AT_EPOCH":5898,"BSTAR":0.0016095,"MEAN_MOTION_DOT":0.0021176,"MEAN_MOTION_DDOT":0},{"OBJECT_NAME":"STARLINK-11400 [DTC]","OBJECT_ID":"2025-032N","EPOCH":"2026-02-17T02:30:28.087200","MEAN_MOTION":15.71004503,"ECCENTRICITY":0.0007619,"INCLINATION":43.0004,"RA_OF_ASC_NODE":319.6562,"ARG_OF_PERICENTER":241.4865,"MEAN_ANOMALY":118.5236,"EPHEMERIS_TYPE":0,"CLASSIFICATION_TYPE":"U","NORAD_CAT_ID":63017,"ELEMENT_SET_NO":999,"REV_AT_EPOCH":5897,"BSTAR":0.001589,"MEAN_MOTION_DOT":0.00210391,"MEAN_MOTION_DDOT":0},{"OBJECT_NAME":"STARLINK-32870","OBJECT_ID":"2025-032P","EPOCH":"2026-02-17T04:30:10.514016","MEAN_MOTION":15.27609645,"ECCENTRICITY":0.0001717,"INCLINATION":43.0015,"RA_OF_ASC_NODE":91.9062,"ARG_OF_PERICENTER":264.9866,"MEAN_ANOMALY":95.079,"EPHEMERIS_TYPE":0,"CLASSIFICATION_TYPE":"U","NORAD_CAT_ID":63018,"ELEMENT_SET_NO":999,"REV_AT_EPOCH":5748,"BSTAR":0.0013778,"MEAN_MOTION_DOT":0.00037882,"MEAN_MOTION_DDOT":0},{"OBJECT_NAME":"STARLINK-32872","OBJECT_ID":"2025-032Q","EPOCH":"2026-02-17T03:27:28.798848","MEAN_MOTION":15.27603464,"ECCENTRICITY":2.02e-5,"INCLINATION":42.9921,"RA_OF_ASC_NODE":92.4408,"ARG_OF_PERICENTER":57.9641,"MEAN_ANOMALY":302.123,"EPHEMERIS_TYPE":0,"CLASSIFICATION_TYPE":"U","NORAD_CAT_ID":63019,"ELEMENT_SET_NO":999,"REV_AT_EPOCH":5747,"BSTAR":0.0010761,"MEAN_MOTION_DOT":0.00029489,"MEAN_MOTION_DDOT":0},{"OBJECT_NAME":"STARLINK-32677","OBJECT_ID":"2025-032R","EPOCH":"2026-02-17T03:01:34.638240","MEAN_MOTION":15.27598223,"ECCENTRICITY":6.97e-5,"INCLINATION":42.9985,"RA_OF_ASC_NODE":92.3106,"ARG_OF_PERICENTER":326.3363,"MEAN_ANOMALY":33.7445,"EPHEMERIS_TYPE":0,"CLASSIFICATION_TYPE":"U","NORAD_CAT_ID":63020,"ELEMENT_SET_NO":999,"REV_AT_EPOCH":5746,"BSTAR":0.00087818,"MEAN_MOTION_DOT":0.00023995,"MEAN_MOTION_DDOT":0},{"OBJECT_NAME":"STARLINK-32929","OBJECT_ID":"2025-032S","EPOCH":"2026-02-17T03:07:08.529312","MEAN_MOTION":15.27566446,"ECCENTRICITY":0.0001811,"INCLINATION":42.9991,"RA_OF_ASC_NODE":92.3331,"ARG_OF_PERICENTER":257.6823,"MEAN_ANOMALY":102.3826,"EPHEMERIS_TYPE":0,"CLASSIFICATION_TYPE":"U","NORAD_CAT_ID":63021,"ELEMENT_SET_NO":999,"REV_AT_EPOCH":5747,"BSTAR":0.0012165,"MEAN_MOTION_DOT":0.00033352,"MEAN_MOTION_DDOT":0},{"OBJECT_NAME":"STARLINK-32944","OBJECT_ID":"2025-032T","EPOCH":"2026-02-17T03:33:01.513152","MEAN_MOTION":15.27601362,"ECCENTRICITY":0.0001478,"INCLINATION":42.9938,"RA_OF_ASC_NODE":92.4728,"ARG_OF_PERICENTER":144.4001,"MEAN_ANOMALY":215.6949,"EPHEMERIS_TYPE":0,"CLASSIFICATION_TYPE":"U","NORAD_CAT_ID":63022,"ELEMENT_SET_NO":999,"REV_AT_EPOCH":5747,"BSTAR":0.00083862,"MEAN_MOTION_DOT":0.00022902,"MEAN_MOTION_DDOT":0},{"OBJECT_NAME":"STARLINK-32943","OBJECT_ID":"2025-032U","EPOCH":"2026-02-17T02:30:06.645312","MEAN_MOTION":15.27628172,"ECCENTRICITY":0.0001297,"INCLINATION":42.9984,"RA_OF_ASC_NODE":92.1384,"ARG_OF_PERICENTER":190.6964,"MEAN_ANOMALY":169.386,"EPHEMERIS_TYPE":0,"CLASSIFICATION_TYPE":"U","NORAD_CAT_ID":63023,"ELEMENT_SET_NO":999,"REV_AT_EPOCH":5747,"BSTAR":0.0009412,"MEAN_MOTION_DOT":0.00025766,"MEAN_MOTION_DDOT":0},{"OBJECT_NAME":"STARLINK-32803","OBJECT_ID":"2025-032V","EPOCH":"2026-02-17T03:58:42.890016","MEAN_MOTION":15.2758098,"ECCENTRICITY":0.0001068,"INCLINATION":43.0011,"RA_OF_ASC_NODE":91.7357,"ARG_OF_PERICENTER":188.3396,"MEAN_ANOMALY":171.7438,"EPHEMERIS_TYPE":0,"CLASSIFICATION_TYPE":"U","NORAD_CAT_ID":63024,"ELEMENT_SET_NO":999,"REV_AT_EPOCH":5732,"BSTAR":0.0010389,"MEAN_MOTION_DOT":0.00028437,"MEAN_MOTION_DDOT":0},{"OBJECT_NAME":"STARLINK-32926","OBJECT_ID":"2025-032W","EPOCH":"2026-02-17T03:49:28.094880","MEAN_MOTION":15.27650065,"ECCENTRICITY":0.0001219,"INCLINATION":42.9985,"RA_OF_ASC_NODE":91.6956,"ARG_OF_PERICENTER":254.2383,"MEAN_ANOMALY":105.8334,"EPHEMERIS_TYPE":0,"CLASSIFICATION_TYPE":"U","NORAD_CAT_ID":63025,"ELEMENT_SET_NO":999,"REV_AT_EPOCH":5748,"BSTAR":0.001702,"MEAN_MOTION_DOT":0.00046973,"MEAN_MOTION_DDOT":0},{"OBJECT_NAME":"STARLINK-32798","OBJECT_ID":"2025-034A","EPOCH":"2026-02-17T03:29:39.528960","MEAN_MOTION":15.30206396,"ECCENTRICITY":0.000108,"INCLINATION":53.1618,"RA_OF_ASC_NODE":6.1818,"ARG_OF_PERICENTER":83.4905,"MEAN_ANOMALY":276.6218,"EPHEMERIS_TYPE":0,"CLASSIFICATION_TYPE":"U","NORAD_CAT_ID":63029,"ELEMENT_SET_NO":999,"REV_AT_EPOCH":5576,"BSTAR":0.0012889,"MEAN_MOTION_DOT":0.00038016,"MEAN_MOTION_DDOT":0},{"OBJECT_NAME":"STARLINK-32779","OBJECT_ID":"2025-034B","EPOCH":"2026-02-17T03:17:39.447168","MEAN_MOTION":15.30214748,"ECCENTRICITY":0.0001613,"INCLINATION":53.1625,"RA_OF_ASC_NODE":6.8302,"ARG_OF_PERICENTER":135.0253,"MEAN_ANOMALY":225.0879,"EPHEMERIS_TYPE":0,"CLASSIFICATION_TYPE":"U","NORAD_CAT_ID":63030,"ELEMENT_SET_NO":999,"REV_AT_EPOCH":5575,"BSTAR":0.0009106,"MEAN_MOTION_DOT":0.0002672,"MEAN_MOTION_DDOT":0},{"OBJECT_NAME":"STARLINK-32716","OBJECT_ID":"2025-034C","EPOCH":"2026-02-17T03:25:49.235808","MEAN_MOTION":15.3019857,"ECCENTRICITY":0.0001224,"INCLINATION":53.1603,"RA_OF_ASC_NODE":353.3778,"ARG_OF_PERICENTER":75.9233,"MEAN_ANOMALY":284.1904,"EPHEMERIS_TYPE":0,"CLASSIFICATION_TYPE":"U","NORAD_CAT_ID":63031,"ELEMENT_SET_NO":999,"REV_AT_EPOCH":5594,"BSTAR":0.00098221,"MEAN_MOTION_DOT":0.00028843,"MEAN_MOTION_DDOT":0},{"OBJECT_NAME":"STARLINK-32776","OBJECT_ID":"2025-034D","EPOCH":"2026-02-17T01:27:36.995040","MEAN_MOTION":15.30205033,"ECCENTRICITY":0.0001001,"INCLINATION":53.1604,"RA_OF_ASC_NODE":354.2818,"ARG_OF_PERICENTER":75.1999,"MEAN_ANOMALY":284.9112,"EPHEMERIS_TYPE":0,"CLASSIFICATION_TYPE":"U","NORAD_CAT_ID":63032,"ELEMENT_SET_NO":999,"REV_AT_EPOCH":5592,"BSTAR":0.00082693,"MEAN_MOTION_DOT":0.00024216,"MEAN_MOTION_DDOT":0}]
